[
    {
        "CCSDS_OMM_VERS": "3.0",
        "COMMENT": "GENERATED VIA SPACE-TRACK.ORG API",
        "CREATION_DATE": "2025-04-11T14:56:34",
        "ORIGINATOR": "18 SPCS",
        "OBJECT_NAME": "GALILEO 9 (205)",
        "OBJECT_ID": "2015-045A",
        "CENTER_NAME": "EARTH",
        "REF_FRAME": "TEME",
        "TIME_SYSTEM": "UTC",
        "MEAN_ELEMENT_THEORY": "SGP4",
        "EPOCH": "2025-04-10T22:10:02.734464",
        "MEAN_MOTION": "1.70474035",
        "ECCENTRICITY": "0.00049120",
        "INCLINATION": "55.0945",
        "RA_OF_ASC_NODE": "233.5431",
        "ARG_OF_PERICENTER": "47.2510",
        "MEAN_ANOMALY": "312.7333",
        "EPHEMERIS_TYPE": "0",
        "CLASSIFICATION_TYPE": "U",
        "NORAD_CAT_ID": "40889",
        "ELEMENT_SET_NO": "999",
        "REV_AT_EPOCH": "5964",
        "BSTAR": "0.00000000000000",
        "MEAN_MOTION_DOT": "-0.00000029",
        "MEAN_MOTION_DDOT": "0.0000000000000",
        "SEMIMAJOR_AXIS": "29600.316",
        "PERIOD": "844.703",
        "APOAPSIS": "23236.721",
        "PERIAPSIS": "23207.641",
        "OBJECT_TYPE": "PAYLOAD",
        "RCS_SIZE": "LARGE",
        "COUNTRY_CODE": "ESA",
        "LAUNCH_DATE": "2015-09-11",
        "SITE": "FRGUI",
        "DECAY_DATE": null,
        "FILE": "4698741",
        "GP_ID": "285374101",
        "TLE_LINE0": "0 GALILEO 9 (205)",
        "TLE_LINE1": "1 40889U 15045A   25100.92364276 -.00000029  00000-0  00000+0 0  9992",
        "TLE_LINE2": "2 40889  55.0945 233.5431 0004912  47.2510 312.7333  1.70474035 59642"
    }
]